ONEWEB-0427             
1 50499U 21132AG  24334.75374284  .00000021  00000+0  19791-4 0  9995
2 50499  87.9113  87.7535 0001676 109.8701 250.2612 13.18683921147225
ONEWEB-0429             
1 50500U 21132AH  24334.74109546  .00000041  00000+0  71206-4 0  9995
2 50500  87.9115  87.7721 0001546  94.7557 265.3751 13.18683880147195
ONEWEB-0430             
1 50501U 21132AJ  24334.95767667  .00000189  00000+0  44634-3 0  9990
2 50501  87.9102  87.7278 0001220 104.9214 255.2053 13.18688679148557
ONEWEB-0432             
1 50502U 21132AK  24334.76165322  .00000035  00000+0  56706-4 0  9994
2 50502  87.9102  87.7579 0001739 139.4892 220.6370 13.18687505147196
ONEWEB-0440             
1 50503U 21132AL  24335.28015075  .00000074  00000+0  15406-3 0  9996
2 50503  87.9114  87.6484 0001833  88.7727 271.3615 13.18686919148545
ONEWEB-0450             
1 50504U 21132AM  24335.50155687 -.00000025  00000+0 -95880-4 0  9999
2 50504  87.9106  87.6327 0001313  91.5000 268.6282 13.18684369148605
ONEWEB-0410             
1 51622U 22012A   24335.16342326  .00000088  00000+0  19362-3 0  9996
2 51622  87.9078 118.2069 0002784 118.0871 242.0542 13.17650289140715
ONEWEB-0411             
1 51623U 22012B   24334.73108265  .00000013  00000+0  58229-6 0  9997
2 51623  87.8890 148.6712 0000834  96.3438 263.7784 13.10369673135360
